{
  "type": "FeatureCollection",
  "features": [
    {
      "type": "Feature",
      "properties": {
        "name": "Rimi Riga Marathon 2027",
        "distanceKm": 42.195
      },
      "geometry": {
        "type": "LineString",
        "coordinates": [
          [
            24.10483383361207,
            56.94653290497482
          ],
          [
            24.09802578849693,
            56.9431859366232
          ],
          [
            24.09767688322684,
            56.9430277638409
          ],
          [
            24.09733726095333,
            56.94292027888018
          ],
          [
            24.09719956088537,
            56.94287762176071
          ],
          [
            24.0969731845836,
            56.94284326818168
          ],
          [
            24.09682398457593,
            56.94283297705018
          ],
          [
            24.09669503739103,
            56.94283598247669
          ],
          [
            24.09660007984997,
            56.94284105710387
          ],
          [
            24.09648877180609,
            56.94285853492398
          ],
          [
            24.09632771549585,
            56.94290587369193
          ],
          [
            24.09621142913261,
            56.94295276390854
          ],
          [
            24.09609002873005,
            56.94309692119551
          ],
          [
            24.0960537236407,
            56.94318310100659
          ],
          [
            24.09605332918973,
            56.94327553262892
          ],
          [
            24.09609195308335,
            56.94335897727572
          ],
          [
            24.09614904316487,
            56.94342676827917
          ],
          [
            24.09623880003749,
            56.9434853104731
          ],
          [
            24.09631416151349,
            56.94352310695837
          ],
          [
            24.0964175802255,
            56.94355462402597
          ],
          [
            24.09653378194693,
            56.94357951512063
          ],
          [
            24.09666181453841,
            56.94359569293982
          ],
          [
            24.09680441504498,
            56.94359027671465
          ],
          [
            24.09690498609231,
            56.9435825450251
          ],
          [
            24.0970107700987,
            56.94355973781964
          ],
          [
            24.09709962018337,
            56.94353522435506
          ],
          [
            24.09720654373065,
            56.94349618500716
          ],
          [
            24.09727958462079,
            56.94345809846218
          ],
          [
            24.09733648706906,
            56.943391203161
          ],
          [
            24.09809776436452,
            56.94209316424319
          ],
          [
            24.09947289779211,
            56.94005801066095
          ],
          [
            24.10411041933381,
            56.93564334334216
          ],
          [
            24.10440677807616,
            56.93529873749759
          ],
          [
            24.10517367198192,
            56.93433049861991
          ],
          [
            24.10639553398194,
            56.93263693801353
          ],
          [
            24.10662984078498,
            56.93233104973556
          ],
          [
            24.10667632110091,
            56.93226017898647
          ],
          [
            24.10669972591428,
            56.93221912931036
          ],
          [
            24.10684355718937,
            56.93189480198346
          ],
          [
            24.1069009767498,
            56.93174962301076
          ],
          [
            24.10693975565952,
            56.93153161067831
          ],
          [
            24.10695800931738,
            56.93130342616946
          ],
          [
            24.10701687603544,
            56.92995621659902
          ],
          [
            24.1070614644043,
            56.92884940608189
          ],
          [
            24.10705544759671,
            56.92842168934059
          ],
          [
            24.10701823019282,
            56.92785675589138
          ],
          [
            24.10686516338798,
            56.92647321114544
          ],
          [
            24.1068973918572,
            56.92628098403987
          ],
          [
            24.10694079007667,
            56.9262179083259
          ],
          [
            24.107094790708,
            56.92616866421869
          ],
          [
            24.10733899224551,
            56.9261402541571
          ],
          [
            24.10762094998948,
            56.926151538498
          ],
          [
            24.10854010559861,
            56.92621398328453
          ],
          [
            24.1087377007438,
            56.92626328105288
          ],
          [
            24.10911410751545,
            56.92646234415405
          ],
          [
            24.11088700858885,
            56.92735032225293
          ],
          [
            24.11184492782629,
            56.92789571805663
          ],
          [
            24.11517316610153,
            56.92991621128186
          ],
          [
            24.12609264781725,
            56.93669253060149
          ],
          [
            24.12681840254258,
            56.93713180906708
          ],
          [
            24.12767766230755,
            56.93779699804055
          ],
          [
            24.12801912952506,
            56.93806832757507
          ],
          [
            24.12816093731349,
            56.93818908932695
          ],
          [
            24.12824990349485,
            56.93828642461506
          ],
          [
            24.12831840486679,
            56.93840184524316
          ],
          [
            24.12833227116801,
            56.93845777641178
          ],
          [
            24.12834197604494,
            56.93852140003098
          ],
          [
            24.12832644615138,
            56.93859984202984
          ],
          [
            24.12828950822571,
            56.9386809411024
          ],
          [
            24.1282170569133,
            56.93874930482892
          ],
          [
            24.12809867749835,
            56.93883680638219
          ],
          [
            24.12786107057353,
            56.93897026583334
          ],
          [
            24.12763051195745,
            56.93904946080954
          ],
          [
            24.1274027453923,
            56.9390713340447
          ],
          [
            24.12724348854394,
            56.93905465757361
          ],
          [
            24.12708092074108,
            56.93902767421314
          ],
          [
            24.12457880447298,
            56.93822997333985
          ],
          [
            24.12432113223925,
            56.93815616862036
          ],
          [
            24.12408896929828,
            56.93813087994853
          ],
          [
            24.12390568037824,
            56.93814990009324
          ],
          [
            24.1235015513305,
            56.93823993225777
          ],
          [
            24.12291069629525,
            56.93846541413566
          ],
          [
            24.11724627247675,
            56.94054485788115
          ],
          [
            24.11039794489002,
            56.94337305327026
          ],
          [
            24.10849544153888,
            56.94432421893919
          ],
          [
            24.1081044331343,
            56.9445029493286
          ],
          [
            24.1057249357662,
            56.94543636727298
          ],
          [
            24.10477910144765,
            56.94594897547348
          ],
          [
            24.10412141967151,
            56.94633270926646
          ],
          [
            24.10374086280385,
            56.94659501213449
          ],
          [
            24.10341537977646,
            56.94684361631161
          ],
          [
            24.1034140591185,
            56.94687210902671
          ],
          [
            24.10343778301263,
            56.94689420936874
          ],
          [
            24.10347022185234,
            56.9469074593157
          ],
          [
            24.1035121301241,
            56.94690849949057
          ],
          [
            24.10353443627067,
            56.94690748412387
          ],
          [
            24.10356019400541,
            56.94690647091217
          ],
          [
            24.10359144171263,
            56.94689426884647
          ],
          [
            24.10437211830499,
            56.94647330430778
          ],
          [
            24.10441679195784,
            56.94642501622936
          ],
          [
            24.10442604571377,
            56.94637756272095
          ],
          [
            24.10440722106635,
            56.94635450415986
          ],
          [
            24.10437294067486,
            56.94631887667367
          ],
          [
            24.10431199914058,
            56.94628069968316
          ],
          [
            24.09258736513874,
            56.94046025512574
          ],
          [
            24.09240538371959,
            56.94038674488857
          ],
          [
            24.09228516750089,
            56.94034694219456
          ],
          [
            24.09220595061464,
            56.9403295844078
          ],
          [
            24.09204661650907,
            56.9403028582069
          ],
          [
            24.09193793297342,
            56.9402954346279
          ],
          [
            24.09181826369629,
            56.94030592945807
          ],
          [
            24.09166857759464,
            56.94033452782482
          ],
          [
            24.09142677881976,
            56.94043376779651
          ],
          [
            24.08792631322707,
            56.94231955931337
          ],
          [
            24.08573942426343,
            56.94347709455427
          ],
          [
            24.08534085391377,
            56.94373917592944
          ],
          [
            24.08520208572301,
            56.94383961132991
          ],
          [
            24.08519234215921,
            56.94384280366413
          ],
          [
            24.08505049279304,
            56.94396896080497
          ],
          [
            24.08466237009128,
            56.94437523529143
          ],
          [
            24.08268247229791,
            56.94649617109064
          ],
          [
            24.08223165831059,
            56.94683344290792
          ],
          [
            24.08192292495469,
            56.94703768342733
          ],
          [
            24.08066372904393,
            56.94788829559251
          ],
          [
            24.07992471769041,
            56.94839472576365
          ],
          [
            24.07923653996147,
            56.94874205179156
          ],
          [
            24.07883151973547,
            56.94892486361497
          ],
          [
            24.07778836698381,
            56.94924208817089
          ],
          [
            24.07679391277735,
            56.949528463587
          ],
          [
            24.07591766219394,
            56.94981574232113
          ],
          [
            24.07361489068936,
            56.95066269541683
          ],
          [
            24.07318860306548,
            56.95084155037216
          ],
          [
            24.0728698083676,
            56.95099991342564
          ],
          [
            24.07248005558805,
            56.95121755170115
          ],
          [
            24.07202165025414,
            56.9515464764543
          ],
          [
            24.07153095513744,
            56.95192066113997
          ],
          [
            24.07067270027616,
            56.95289058470657
          ],
          [
            24.07000846788904,
            56.95371532739654
          ],
          [
            24.06994990331865,
            56.95383529442168
          ],
          [
            24.06990854835194,
            56.95390840268603
          ],
          [
            24.06986754003422,
            56.95404133482982
          ],
          [
            24.06985264505205,
            56.95417504600643
          ],
          [
            24.07062299787808,
            56.95755636450947
          ],
          [
            24.07062482478331,
            56.95773488249223
          ],
          [
            24.07052434700755,
            56.95793829732819
          ],
          [
            24.07044209687015,
            56.95805995460027
          ],
          [
            24.07029231022378,
            56.95820836934882
          ],
          [
            24.06967846864046,
            56.95879306470938
          ],
          [
            24.06838821120452,
            56.95970589613071
          ],
          [
            24.06602467408386,
            56.96132027678546
          ],
          [
            24.06597924727541,
            56.96133705193198
          ],
          [
            24.06592725849137,
            56.96133801794505
          ],
          [
            24.0658542649263,
            56.96131822131694
          ],
          [
            24.06283675907414,
            56.95921166755794
          ],
          [
            24.06273347169386,
            56.95916055997077
          ],
          [
            24.06259320965948,
            56.95910577761912
          ],
          [
            24.06094577608829,
            56.9586651988036
          ],
          [
            24.06090795549282,
            56.95864286242313
          ],
          [
            24.06090185070379,
            56.9586155184369
          ],
          [
            24.06092597263963,
            56.95857478647306
          ],
          [
            24.06241029579088,
            56.95683388479056
          ],
          [
            24.06256053758575,
            56.95662462416532
          ],
          [
            24.06271416095821,
            56.95638812481646
          ],
          [
            24.06283935349821,
            56.95611239060662
          ],
          [
            24.06303527223638,
            56.95547751151612
          ],
          [
            24.06305531705371,
            56.95508069545374
          ],
          [
            24.06305257848248,
            56.95447033265648
          ],
          [
            24.06287515077257,
            56.95314543870902
          ],
          [
            24.06288861020692,
            56.95288169807642
          ],
          [
            24.0629341937769,
            56.95270156640088
          ],
          [
            24.06302290357853,
            56.95244728563372
          ],
          [
            24.06325057701908,
            56.95205832288959
          ],
          [
            24.06350909248138,
            56.95180082667389
          ],
          [
            24.06384962358701,
            56.95150935807256
          ],
          [
            24.06446696448907,
            56.95106357946149
          ],
          [
            24.06470328966022,
            56.95094501435207
          ],
          [
            24.06488112280699,
            56.95086503771736
          ],
          [
            24.06508274690177,
            56.95080798142706
          ],
          [
            24.06695023918926,
            56.95062044634288
          ],
          [
            24.0674089245977,
            56.95054245338861
          ],
          [
            24.06854160835714,
            56.95028430566802
          ],
          [
            24.06967677078685,
            56.94997394535339
          ],
          [
            24.07038104615406,
            56.94972084169259
          ],
          [
            24.0709753852231,
            56.94946479084201
          ],
          [
            24.0713341544604,
            56.94929547482266
          ],
          [
            24.0715455220604,
            56.9491653004406
          ],
          [
            24.07172073633929,
            56.94903586723234
          ],
          [
            24.0719140320841,
            56.94885314747571
          ],
          [
            24.07218265949488,
            56.94853487640297
          ],
          [
            24.07413276937448,
            56.94601390537662
          ],
          [
            24.07426361456464,
            56.94589686719524
          ],
          [
            24.07427961779336,
            56.94589356365242
          ],
          [
            24.07429883461733,
            56.94589743767816
          ],
          [
            24.07432433804814,
            56.94590692731767
          ],
          [
            24.07681164546865,
            56.94688167185939
          ],
          [
            24.0775586809254,
            56.94718784340546
          ],
          [
            24.07813779961499,
            56.94742048821449
          ],
          [
            24.07879663514426,
            56.9476764675311
          ],
          [
            24.07954778907026,
            56.94792689731425
          ],
          [
            24.08232977064121,
            56.94866072142479
          ],
          [
            24.08387706033036,
            56.94896560070219
          ],
          [
            24.08463709432068,
            56.94908965857573
          ],
          [
            24.08630262522428,
            56.94939126582436
          ],
          [
            24.09584446344144,
            56.95122244598961
          ],
          [
            24.0991148129838,
            56.95186226539878
          ],
          [
            24.10441224173638,
            56.95295547351733
          ],
          [
            24.10552791325621,
            56.95319375486964
          ],
          [
            24.10559443902672,
            56.9531997834647
          ],
          [
            24.10565268572957,
            56.95318668029172
          ],
          [
            24.10601671533317,
            56.95289551950878
          ],
          [
            24.10670435824848,
            56.95239537645502
          ],
          [
            24.10693461056576,
            56.95229099773002
          ],
          [
            24.10703725251589,
            56.95224712839628
          ],
          [
            24.10717595681245,
            56.95220174669633
          ],
          [
            24.10739788258801,
            56.95213518681376
          ],
          [
            24.10740343076897,
            56.9521321612914
          ],
          [
            24.10782508606589,
            56.95205652606077
          ],
          [
            24.10888199408555,
            56.95191432732631
          ],
          [
            24.10913105560957,
            56.95184580685283
          ],
          [
            24.10935693817099,
            56.9517636834579
          ],
          [
            24.10963519783676,
            56.95162978606969
          ],
          [
            24.11145909634996,
            56.95052827533861
          ],
          [
            24.11180169468084,
            56.95047633362713
          ],
          [
            24.11354270367783,
            56.95139407175451
          ],
          [
            24.11515830764968,
            56.95241591912625
          ],
          [
            24.1180984699212,
            56.95435625363834
          ],
          [
            24.11937828423917,
            56.95511979965243
          ],
          [
            24.11958314594205,
            56.95524561874992
          ],
          [
            24.12147374865274,
            56.95633764049109
          ],
          [
            24.12324087646082,
            56.95730144248849
          ],
          [
            24.12472913175218,
            56.95814710912217
          ],
          [
            24.12567123381027,
            56.95864528499426
          ],
          [
            24.12590959462615,
            56.95875095286566
          ],
          [
            24.12621816857299,
            56.9588601671821
          ],
          [
            24.12998867762323,
            56.96011334804958
          ],
          [
            24.13109468519993,
            56.9605122914286
          ],
          [
            24.13244423587051,
            56.96102827649419
          ],
          [
            24.13280759748295,
            56.96117966848679
          ],
          [
            24.13487930450312,
            56.96207750203794
          ],
          [
            24.14693474154408,
            56.96701850518362
          ],
          [
            24.14700050047018,
            56.96704471839425
          ],
          [
            24.14703943630072,
            56.9670604731631
          ],
          [
            24.14706539255357,
            56.96707575602628
          ],
          [
            24.14706702691266,
            56.96709908365411
          ],
          [
            24.14706279078873,
            56.96711490638609
          ],
          [
            24.14706202171398,
            56.9671302154765
          ],
          [
            24.14704174759224,
            56.96714350868116
          ],
          [
            24.14698072178817,
            56.96718009447058
          ],
          [
            24.14689870022869,
            56.96722047461424
          ],
          [
            24.1468276247119,
            56.96725532558752
          ],
          [
            24.1432328054382,
            56.96850188788765
          ],
          [
            24.14308795294924,
            56.96855083373925
          ],
          [
            24.14291157427711,
            56.96861983452157
          ],
          [
            24.14276250709933,
            56.96868958014065
          ],
          [
            24.13844114695844,
            56.97068999692413
          ],
          [
            24.13840457797396,
            56.97071171462951
          ],
          [
            24.138401364964,
            56.9707312100801
          ],
          [
            24.13840086836179,
            56.97076039295209
          ],
          [
            24.13841634657681,
            56.97079305455104
          ],
          [
            24.1384725500584,
            56.97082873774149
          ],
          [
            24.14089536231369,
            56.97237681627816
          ],
          [
            24.14103855253828,
            56.97243898298182
          ],
          [
            24.14117391620042,
            56.97248524264282
          ],
          [
            24.14250931048127,
            56.97297885454965
          ],
          [
            24.14291866872492,
            56.97314502562661
          ],
          [
            24.1431151954439,
            56.97324460779677
          ],
          [
            24.14325823365677,
            56.97333034627019
          ],
          [
            24.14545248930759,
            56.97562522619999
          ],
          [
            24.14556747496952,
            56.97583114782334
          ],
          [
            24.14561694215571,
            56.97609643195812
          ],
          [
            24.14561964713283,
            56.976203347621
          ],
          [
            24.1456354796664,
            56.97643616929794
          ],
          [
            24.14562516587313,
            56.97652198542416
          ],
          [
            24.14561136608566,
            56.97657982311573
          ],
          [
            24.14558771103962,
            56.9766102571005
          ],
          [
            24.14512995787776,
            56.97698987128405
          ],
          [
            24.14510425714756,
            56.97705811395694
          ],
          [
            24.1450928724184,
            56.97713850550322
          ],
          [
            24.14511984101258,
            56.97731997869532
          ],
          [
            24.14517023421765,
            56.97741628633208
          ],
          [
            24.14521318078111,
            56.97746160264794
          ],
          [
            24.14529429105183,
            56.97755216078931
          ],
          [
            24.14538088992239,
            56.97763498209777
          ],
          [
            24.14658649570458,
            56.97883868511289
          ],
          [
            24.14832797300718,
            56.98068722968429
          ],
          [
            24.1484542084413,
            56.98080144374533
          ],
          [
            24.14958998203038,
            56.98160920641526
          ],
          [
            24.14994209397021,
            56.98185779945409
          ],
          [
            24.15016244990886,
            56.9820084280444
          ],
          [
            24.15031378938044,
            56.98210566239423
          ],
          [
            24.15046495636269,
            56.98217520819446
          ],
          [
            24.15079608867128,
            56.98229703843379
          ],
          [
            24.15153400257598,
            56.98256568037603
          ],
          [
            24.15312082195054,
            56.98314556720247
          ],
          [
            24.15467213699569,
            56.98368082709705
          ],
          [
            24.15633546708257,
            56.98416039151433
          ],
          [
            24.15695830812393,
            56.9844010458246
          ],
          [
            24.15815681584608,
            56.98484046685746
          ],
          [
            24.15863650104886,
            56.9850434229524
          ],
          [
            24.15883423788199,
            56.98512172619348
          ],
          [
            24.15900108957894,
            56.98520121147127
          ],
          [
            24.15914358665618,
            56.98527925551664
          ],
          [
            24.1593405857478,
            56.98539932048843
          ],
          [
            24.15984915840353,
            56.98573760253174
          ],
          [
            24.16051377001186,
            56.98620469714549
          ],
          [
            24.16174200806404,
            56.98700436104996
          ],
          [
            24.16475459404496,
            56.9890615278019
          ],
          [
            24.16519388849282,
            56.98944070995459
          ],
          [
            24.16560974084897,
            56.99007765980296
          ],
          [
            24.16568247377169,
            56.99017287901828
          ],
          [
            24.16572691388958,
            56.9902426509517
          ],
          [
            24.16571856008995,
            56.99029892173941
          ],
          [
            24.16567885093065,
            56.99050246629284
          ],
          [
            24.16440793205085,
            56.99268483843985
          ],
          [
            24.16178146836465,
            56.99708839122978
          ],
          [
            24.16181489647605,
            56.997181641149
          ],
          [
            24.16186369619443,
            56.99721777985539
          ],
          [
            24.16257962833097,
            56.99765731864321
          ],
          [
            24.16277929368232,
            56.99772691932729
          ],
          [
            24.16290794894584,
            56.99776330854802
          ],
          [
            24.163752363626,
            56.99800356068555
          ],
          [
            24.16383253812369,
            56.99800978308189
          ],
          [
            24.16494009784684,
            56.99810085496626
          ],
          [
            24.16537711262582,
            56.99815394213526
          ],
          [
            24.1656883975695,
            56.99819602953222
          ],
          [
            24.16590816473675,
            56.99824934242848
          ],
          [
            24.16604465139099,
            56.9983305427711
          ],
          [
            24.16615764422655,
            56.99847483554128
          ],
          [
            24.1661792129336,
            56.99871801765582
          ],
          [
            24.16609425158514,
            56.99892470407437
          ],
          [
            24.16515042341064,
            56.99984871474142
          ],
          [
            24.16504410310455,
            56.99999731261079
          ],
          [
            24.1649812500497,
            57.00023233555937
          ],
          [
            24.16497748508215,
            57.00050638691295
          ],
          [
            24.16498530884924,
            57.00057330418903
          ],
          [
            24.1650320134904,
            57.00062184707604
          ],
          [
            24.16508698201029,
            57.00066100982655
          ],
          [
            24.16525159067797,
            57.00069795229614
          ],
          [
            24.16778903836168,
            57.00109507009243
          ],
          [
            24.16823196630364,
            57.00119552444049
          ],
          [
            24.16971449999591,
            57.00163133134713
          ],
          [
            24.17012717124339,
            57.00176641473564
          ],
          [
            24.17042539992438,
            57.00189188456645
          ],
          [
            24.17055396700658,
            57.00214257234291
          ],
          [
            24.17062886088673,
            57.0023154087686
          ],
          [
            24.1706636386742,
            57.00253755588621
          ],
          [
            24.1705729066643,
            57.00271767956976
          ],
          [
            24.17048632167104,
            57.00282793624385
          ],
          [
            24.17036139658035,
            57.00292671752114
          ],
          [
            24.17016077164714,
            57.00302874596387
          ],
          [
            24.1693247932014,
            57.00325771887136
          ],
          [
            24.16914299324846,
            57.00331303814043
          ],
          [
            24.16904702943697,
            57.00336927085154
          ],
          [
            24.16891284019876,
            57.00347387075449
          ],
          [
            24.16556966300345,
            57.00623568660126
          ],
          [
            24.16486515351062,
            57.00675519248716
          ],
          [
            24.16476906998754,
            57.00681028343329
          ],
          [
            24.16466260762082,
            57.0068379957433
          ],
          [
            24.16453684491541,
            57.00685889218992
          ],
          [
            24.16438997457202,
            57.00686866002936
          ],
          [
            24.16008958504962,
            57.00645206610192
          ],
          [
            24.15977175989177,
            57.00639062660298
          ],
          [
            24.15903937117376,
            57.00617068048125
          ],
          [
            24.15814886471061,
            57.00587290309627
          ],
          [
            24.1580719079601,
            57.00586864337804
          ],
          [
            24.15799158391712,
            57.00588872261322
          ],
          [
            24.15766860311755,
            57.00601356916105
          ],
          [
            24.15697740003137,
            57.00617620724341
          ],
          [
            24.15690707419555,
            57.00620456451512
          ],
          [
            24.15685601666159,
            57.00623159730063
          ],
          [
            24.15683491154012,
            57.00626931792624
          ],
          [
            24.15677635749301,
            57.0065250134015
          ],
          [
            24.1561451966487,
            57.01129282374747
          ],
          [
            24.15608649774129,
            57.01134516022971
          ],
          [
            24.14935385035765,
            57.01445500879093
          ],
          [
            24.14934060761389,
            57.01447048982098
          ],
          [
            24.14933153801565,
            57.0144928685384
          ],
          [
            24.14933529682162,
            57.01452092615072
          ],
          [
            24.14934350121045,
            57.0145494547569
          ],
          [
            24.14936614282347,
            57.01459955441647
          ],
          [
            24.14975980850604,
            57.01555559331316
          ],
          [
            24.14982689639962,
            57.01569860826968
          ],
          [
            24.14986462451539,
            57.01580364849193
          ],
          [
            24.14990172858696,
            57.01592165982764
          ],
          [
            24.14992618262019,
            57.01600692434347
          ],
          [
            24.14995835970233,
            57.01613320405031
          ],
          [
            24.14993539154549,
            57.01614137953411
          ],
          [
            24.1499077098228,
            57.01613727946985
          ],
          [
            24.14989459425115,
            57.01609836880047
          ],
          [
            24.14986665358021,
            57.01600895714205
          ],
          [
            24.14924154630847,
            57.01453242059631
          ],
          [
            24.14915676927781,
            57.01431978427
          ],
          [
            24.14904697282598,
            57.01406450232929
          ],
          [
            24.1490220584937,
            57.01391929835713
          ],
          [
            24.14899843752398,
            57.01347880578581
          ],
          [
            24.14899924291212,
            57.0129898854531
          ],
          [
            24.14911803137357,
            57.01237761431116
          ],
          [
            24.14927542663383,
            57.01166726187311
          ],
          [
            24.14964462220255,
            57.01055972795568
          ],
          [
            24.14966299647543,
            57.01049064538653
          ],
          [
            24.14967542468311,
            57.01042443175885
          ],
          [
            24.14904700893266,
            57.01023598417572
          ],
          [
            24.14895805868989,
            57.01019030471527
          ],
          [
            24.14874204383624,
            57.01004312411438
          ],
          [
            24.14727997581807,
            57.00880240428936
          ],
          [
            24.14681802699523,
            57.00832712844164
          ],
          [
            24.14628405386906,
            57.00758868641564
          ],
          [
            24.14548782215464,
            57.00574942778188
          ],
          [
            24.14485948683198,
            57.00428883967653
          ],
          [
            24.14460733597903,
            57.00330489045109
          ],
          [
            24.14461215379345,
            57.00302754939661
          ],
          [
            24.14471989933836,
            57.00272140727431
          ],
          [
            24.14489471485448,
            57.00241820035038
          ],
          [
            24.14502898578342,
            57.00221749454649
          ],
          [
            24.14518491641059,
            57.00198896424193
          ],
          [
            24.14539080332557,
            57.00175689192984
          ],
          [
            24.14630595476429,
            57.00102103397851
          ],
          [
            24.14773194889829,
            57.00024760847989
          ],
          [
            24.14780000455744,
            57.00021747571707
          ],
          [
            24.14788014216043,
            57.00019031091035
          ],
          [
            24.14792700383076,
            57.00018381633956
          ],
          [
            24.14796824501373,
            57.00018252603235
          ],
          [
            24.14803326207536,
            57.00019752949416
          ],
          [
            24.1481127885782,
            57.00023594371994
          ],
          [
            24.15672018351376,
            57.00499850504563
          ],
          [
            24.15678945834757,
            57.00501093130294
          ],
          [
            24.15688097079703,
            57.00500208844802
          ],
          [
            24.15693630333928,
            57.00496864272633
          ],
          [
            24.15696388433231,
            57.00494249539774
          ],
          [
            24.16551841839729,
            56.99071153724142
          ],
          [
            24.16556490675567,
            56.99056790977547
          ],
          [
            24.16553110535307,
            56.99053095563736
          ],
          [
            24.16550489862612,
            56.99050386079063
          ],
          [
            24.16549714886371,
            56.99043184521753
          ],
          [
            24.16548968961317,
            56.99036404998088
          ],
          [
            24.16545761155812,
            56.99022420770678
          ],
          [
            24.16537734920158,
            56.99005091786471
          ],
          [
            24.16528977792303,
            56.98991827590726
          ],
          [
            24.16520615925153,
            56.98978100997106
          ],
          [
            24.16503442279845,
            56.98952953494584
          ],
          [
            24.16479258967266,
            56.98925514591149
          ],
          [
            24.16450819895563,
            56.98902318344672
          ],
          [
            24.16120650247119,
            56.98676934777461
          ],
          [
            24.16108216250845,
            56.98669678640071
          ],
          [
            24.16096104210056,
            56.98665268522789
          ],
          [
            24.16083844208856,
            56.98660109660616
          ],
          [
            24.1607613870166,
            56.98656524450023
          ],
          [
            24.16066887867835,
            56.98650341889532
          ],
          [
            24.16045888335902,
            56.98637762159257
          ],
          [
            24.16042894391125,
            56.9863482422119
          ],
          [
            24.16038006413323,
            56.98627401524531
          ],
          [
            24.16035281939329,
            56.98622536788785
          ],
          [
            24.16029586948,
            56.98615665269381
          ],
          [
            24.15976109757614,
            56.98574619374229
          ],
          [
            24.15896947004,
            56.98523618895907
          ],
          [
            24.15834857418195,
            56.98496859242905
          ],
          [
            24.1561697974537,
            56.98419306762617
          ],
          [
            24.15458806169791,
            56.98373022363248
          ],
          [
            24.1539092119796,
            56.98349567632881
          ],
          [
            24.15080691748944,
            56.98244712057365
          ],
          [
            24.14991157195837,
            56.98232271412907
          ],
          [
            24.14922085033488,
            56.98223182257625
          ],
          [
            24.14908980505067,
            56.98219750877266
          ],
          [
            24.14895451560512,
            56.98196441667464
          ],
          [
            24.14864314801605,
            56.98141519086134
          ],
          [
            24.14784294918366,
            56.98048879927946
          ],
          [
            24.14625884208512,
            56.97877778592302
          ],
          [
            24.14513736511221,
            56.97759266738704
          ],
          [
            24.14506798077431,
            56.97749471922315
          ],
          [
            24.14501818219819,
            56.97738780108119
          ],
          [
            24.14498425568332,
            56.97726965602154
          ],
          [
            24.14484883695425,
            56.97667726590274
          ],
          [
            24.14474444151743,
            56.97637007795196
          ],
          [
            24.1435853889811,
            56.97508150864423
          ],
          [
            24.1417874071225,
            56.9732024098238
          ],
          [
            24.14026051697958,
            56.97210151960557
          ],
          [
            24.1382694233887,
            56.97079726058926
          ],
          [
            24.13821991419391,
            56.97079115485428
          ],
          [
            24.13817152011937,
            56.97079342355703
          ],
          [
            24.13677915640834,
            56.97110359210265
          ],
          [
            24.13349922815834,
            56.97171231605227
          ],
          [
            24.12998015833871,
            56.97251949736793
          ],
          [
            24.12989567704537,
            56.97251947291078
          ],
          [
            24.12983660168121,
            56.97248348257585
          ],
          [
            24.12965724155782,
            56.97229674004892
          ],
          [
            24.12897677656633,
            56.97147950356367
          ],
          [
            24.12854562407739,
            56.97054641964692
          ],
          [
            24.12804270886614,
            56.96983167226017
          ],
          [
            24.12688673151195,
            56.96845012205964
          ],
          [
            24.12683415534864,
            56.96839074536411
          ],
          [
            24.12678443107757,
            56.96836939063489
          ],
          [
            24.1267280568807,
            56.96835800346549
          ],
          [
            24.12665002046268,
            56.96835799799833
          ],
          [
            24.12356325671389,
            56.96904947523089
          ],
          [
            24.11996120051382,
            56.969961984047
          ],
          [
            24.11987425733818,
            56.96996195891034
          ],
          [
            24.11980310667612,
            56.96995268165306
          ],
          [
            24.1197411980638,
            56.96992165742163
          ],
          [
            24.11971324446113,
            56.96988958379045
          ],
          [
            24.11606067135234,
            56.9654328438129
          ],
          [
            24.11572127075177,
            56.96502234900776
          ],
          [
            24.11431329940908,
            56.96349851271627
          ],
          [
            24.11391453352341,
            56.96307459162989
          ],
          [
            24.11377237388482,
            56.96293498104116
          ],
          [
            24.11359360188716,
            56.96280165268192
          ],
          [
            24.11336792381585,
            56.96269037520758
          ],
          [
            24.11322940049054,
            56.96262608118128
          ],
          [
            24.113067442579,
            56.96258024008088
          ],
          [
            24.11280716554351,
            56.96253659798241
          ],
          [
            24.11261314385392,
            56.96251750820228
          ],
          [
            24.11224333371179,
            56.96251390043605
          ],
          [
            24.10364192472596,
            56.96269190885301
          ],
          [
            24.10361409928983,
            56.96268270603848
          ],
          [
            24.10360326621857,
            56.96266165541549
          ],
          [
            24.10288232266571,
            56.9588492721713
          ],
          [
            24.102905193799,
            56.9588324111209
          ],
          [
            24.10532741628231,
            56.95854082733342
          ],
          [
            24.10554538301114,
            56.95849433417319
          ],
          [
            24.10570857338481,
            56.95842485154717
          ],
          [
            24.10593029674179,
            56.95828059524959
          ],
          [
            24.10952459131086,
            56.95528010675543
          ],
          [
            24.10962284446301,
            56.95521415640761
          ],
          [
            24.10967750569628,
            56.95520266812939
          ],
          [
            24.10973758849801,
            56.95520581932809
          ],
          [
            24.10985756297842,
            56.95524395987383
          ],
          [
            24.11361787638567,
            56.95648406981914
          ],
          [
            24.11377259657617,
            56.95656308069834
          ],
          [
            24.11725616404846,
            56.95834305580837
          ],
          [
            24.11729339408149,
            56.95835762040164
          ],
          [
            24.11732671217609,
            56.9583625494463
          ],
          [
            24.11737751852844,
            56.95835320513356
          ],
          [
            24.11742565957779,
            56.95833303884427
          ],
          [
            24.11798367275359,
            56.95804156491651
          ],
          [
            24.12110131256784,
            56.95641235071504
          ],
          [
            24.12115591076227,
            56.95636831052349
          ],
          [
            24.12117278406684,
            56.9563541339328
          ],
          [
            24.12115343852275,
            56.95632105240036
          ],
          [
            24.11940477910827,
            56.95530416839609
          ],
          [
            24.11797772177109,
            56.95450750991198
          ],
          [
            24.11765895600682,
            56.95432761539506
          ],
          [
            24.11723771525878,
            56.95408543961652
          ],
          [
            24.11318696020153,
            56.95158314460463
          ],
          [
            24.11259487186108,
            56.95114013892843
          ],
          [
            24.11175194866867,
            56.95061598359599
          ],
          [
            24.11170628609283,
            56.95059770595366
          ],
          [
            24.1116580431884,
            56.95059222765609
          ],
          [
            24.1116002814116,
            56.95059856878067
          ],
          [
            24.11152939609059,
            56.95062138149918
          ],
          [
            24.10956747965446,
            56.95182423104846
          ],
          [
            24.10938462965366,
            56.95188288771894
          ],
          [
            24.10919102313756,
            56.95194154423129
          ],
          [
            24.10907270760752,
            56.95197087246863
          ],
          [
            24.10871775884184,
            56.95201779773057
          ],
          [
            24.10748079765295,
            56.95217616403571
          ],
          [
            24.10687163920776,
            56.95240252077554
          ],
          [
            24.10653935803662,
            56.9525945846231
          ],
          [
            24.10583081633717,
            56.95317524571385
          ],
          [
            24.1058353736994,
            56.95326447851248
          ],
          [
            24.10593293171049,
            56.95333165437868
          ],
          [
            24.10927985210158,
            56.9550658860626
          ],
          [
            24.10934282831089,
            56.95513069422869
          ],
          [
            24.10934699341745,
            56.95519558569763
          ],
          [
            24.1091659006536,
            56.95538309355406
          ],
          [
            24.10586957276072,
            56.95823833627481
          ],
          [
            24.10564863713665,
            56.9583834982037
          ],
          [
            24.1055357289067,
            56.95842800749638
          ],
          [
            24.1053590993919,
            56.95847943923966
          ],
          [
            24.10520494364244,
            56.95851180431527
          ],
          [
            24.10492860464987,
            56.95855166651666
          ],
          [
            24.09867154658671,
            56.95921214202451
          ],
          [
            24.09848770912343,
            56.95923393521993
          ],
          [
            24.09835309501232,
            56.95923340711366
          ],
          [
            24.09826433126695,
            56.95920991612004
          ],
          [
            24.09821413619299,
            56.95917166777645
          ],
          [
            24.09818673619892,
            56.95908872752232
          ],
          [
            24.09819692525402,
            56.95816640180349
          ],
          [
            24.0981432600782,
            56.9580004377106
          ],
          [
            24.09804485124963,
            56.95777589573763
          ],
          [
            24.09739167898204,
            56.95664828357212
          ],
          [
            24.09723062387485,
            56.95637491998369
          ],
          [
            24.09711430746486,
            56.95617477810458
          ],
          [
            24.09697837976029,
            56.95578279097732
          ],
          [
            24.09692688289136,
            56.95548941189854
          ],
          [
            24.09705971201408,
            56.95496295856477
          ],
          [
            24.09732518387058,
            56.954468667961
          ],
          [
            24.09915356905629,
            56.95134834482321
          ],
          [
            24.09947449283715,
            56.95091242868804
          ],
          [
            24.09967829973818,
            56.95067609238425
          ],
          [
            24.1015867689586,
            56.94884524395839
          ]
        ]
      }
    }
  ]
}